{
  "norad_id": 59438,
  "name": "STARLINK-31711",
  "history": [
    {
      "epoch": "2026-03-28T17:03:14.713344Z",
      "apogee_km": 476.1207963372908,
      "perigee_km": 474.22695241026486,
      "latitude_deg": 1.2588282931175402e-06,
      "longitude_deg": 111.23667301785278,
      "height_km": 476.04078862276714,
      "semi_major_axis_km": 6853.310874373778,
      "eccentricity": 0.00013817,
      "inclination_deg": 53.1616,
      "raan_deg": 193.1751,
      "arg_perigee_deg": 88.1127,
      "mean_anomaly_deg": 272.0032,
      "mean_motion_rev_day": 15.30213797
    }
  ]
}