{"fetched_at":"2026-03-29T16:36:15Z","count":15609,"tles":[{"name":"STARLINK-31711","line1":"1 59438U 24065T   26087.71058696 -.00002678  00000+0 -78287-4 0  9991","line2":"2 59438  53.1616 193.1751 0001381  88.1127 272.0032 15.30213797111849","category":"Starlink"}]}